OBJECT_NAME,OBJECT_ID,EPOCH,MEAN_MOTION,ECCENTRICITY,INCLINATION,RA_OF_ASC_NODE,ARG_OF_PERICENTER,MEAN_ANOMALY,EPHEMERIS_TYPE,CLASSIFICATION_TYPE,NORAD_CAT_ID,ELEMENT_SET_NO,REV_AT_EPOCH,BSTAR,MEAN_MOTION_DOT,MEAN_MOTION_DDOT
STARLINK-11182 [DTC],2024-141B,2026-07-20T05:46:27.145344,15.69710558,.00012034,53.1602,152.6787,109.4306,250.6842,0,U,60399,999,11256,-.1973366E-5,-.828E-5,0
STARLINK-11234 [DTC],2024-141C,2026-07-20T02:36:01.248192,15.69707133,.00012465,53.1603,153.2736,103.6232,256.4925,0,U,60400,999,11249,.496664E-5,.13E-6,0
STARLINK-11232 [DTC],2024-141D,2026-07-20T07:04:00.255360,15.69716360,.00010922,53.1597,152.2992,90.7767,269.3376,0,U,60401,999,11257,.8719366E-5,.468E-5,0
STARLINK-11139 [DTC],2024-141E,2026-07-20T02:21:53.522496,15.69711590,.0000921,53.1600,153.2143,96.4676,263.6447,0,U,60402,999,11254,-.1654205E-5,-.789E-5,0
STARLINK-11158 [DTC],2024-141F,2026-07-20T06:50:01.563648,15.69707805,.00010729,53.1587,152.9665,105.8898,254.2238,0,U,60403,999,11251,.6926201E-5,.251E-5,0
STARLINK-11199 [DTC],2024-141G,2026-07-20T06:42:57.983328,15.69705249,.00010942,53.1600,152.9334,89.9819,270.1324,0,U,60404,999,11256,-.1204136E-5,-.734E-5,0
STARLINK-11081 [DTC],2024-141H,2026-07-20T06:35:53.697120,15.69711245,.00011115,53.1600,152.9032,88.4101,271.7044,0,U,60405,999,11251,.4679734E-5,-.22E-6,0
STARLINK-11150 [DTC],2024-141J,2026-07-20T06:28:49.998432,15.69709509,.00010735,53.1595,152.8703,76.2402,283.8735,0,U,60406,999,11256,.4013417E-5,-.102E-5,0
STARLINK-11136 [DTC],2024-141K,2026-07-20T03:18:24.189408,15.69711573,.00004353,53.1597,153.4659,47.0351,313.0703,0,U,60407,999,11249,-.4479355E-5,-.113E-4,0
STARLINK-11196 [DTC],2024-141L,2026-07-20T03:11:20.351616,15.69706803,.00012021,53.1599,153.4320,107.4498,252.6651,0,U,60408,999,11254,.6471224E-5,.195E-5,0
STARLINK-11174 [DTC],2024-141M,2026-07-20T02:57:12.720096,15.69706832,.00010027,53.1590,153.3664,83.3633,276.7499,0,U,60409,999,11249,.5562894E-5,.85E-6,0
STARLINK-11191 [DTC],2024-141N,2026-07-20T05:53:30.828480,15.69711583,.00010398,53.1597,152.7078,84.0304,276.0832,0,U,60410,999,11256,.9768256E-5,.595E-5,0
STARLINK-32244,2024-141P,2026-07-19T18:47:00.803616,15.31699987,.00013083,53.1613,348.3914,93.6178,266.4973,0,U,60411,999,10981,.16285023E-4,.14E-5,0
STARLINK-32186,2024-141Q,2026-07-19T18:04:37.070976,15.34399077,.00009298,53.1615,346.7947,84.9433,275.1675,0,U,60412,999,10977,.31137478E-4,.676E-5,0
STARLINK-32178,2024-141R,2026-07-19T16:18:42.753600,15.34390955,.00012416,53.1614,347.0430,97.3913,262.7231,0,U,60413,999,10976,-.46783E-6,-.392E-5,0
STARLINK-32234,2024-141S,2026-07-19T20:07:31.224576,15.31721361,.00016557,53.1607,348.0265,73.6424,286.4759,0,U,60414,999,10982,-.77574393E-4,-.2773E-4,0
STARLINK-32265,2024-141T,2026-07-19T19:35:23.059968,15.34397098,.00011411,53.1614,346.4751,90.6740,269.4393,0,U,60415,999,10984,.40409691E-4,.989E-5,0
STARLINK-32197,2024-141U,2026-07-20T02:26:42.534816,15.31697946,.00009038,53.1612,336.8660,106.3645,253.7456,0,U,60416,999,10994,-.249034E-6,-.373E-5,0
STARLINK-32255,2024-141V,2026-07-20T02:26:56.522112,15.34389077,.00012843,53.1599,345.4132,86.5931,273.5219,0,U,60417,999,10988,.29901483E-4,.634E-5,0
STARLINK-32236,2024-141W,2026-07-20T02:29:57.839424,15.34392109,.00013059,53.1620,345.4256,92.5959,267.5193,0,U,60418,999,10988,.4316253E-4,.1082E-4,0
STARLINK-32250,2024-144A,2026-07-19T18:12:40.865184,15.34390815,.00012009,53.1593,322.6932,100.2843,259.8296,0,U,60425,999,10864,.21548406E-4,.352E-5,0
STARLINK-32226,2024-144B,2026-07-19T18:21:45.910944,15.34394614,.00008387,53.1573,322.7298,93.0302,267.0797,0,U,60426,999,10954,.51115813E-4,.1351E-4,0
STARLINK-32254,2024-144C,2026-07-19T11:54:28.360512,15.34388396,.00008978,53.1573,323.8941,87.4669,272.6436,0,U,60427,999,10954,.19787941E-4,.292E-5,0
STARLINK-32193,2024-144D,2026-07-19T09:08:05.609472,15.34387871,.00009195,53.1593,324.5950,100.2476,259.8630,0,U,60428,999,10952,.5168821E-4,.137E-4,0
STARLINK-32242,2024-144E,2026-07-20T07:31:32.205216,15.34377865,.00011182,53.1608,320.4623,90.6164,269.4967,0,U,60429,999,10966,-.37263403E-4,-.1634E-4,0
STARLINK-32196,2024-144F,2026-07-19T18:05:55.767552,15.34407565,.00010682,53.1594,321.2413,85.7980,274.3145,0,U,60430,999,10956,-.540419E-5,-.559E-5,0
STARLINK-32232,2024-144G,2026-07-19T18:39:57.355488,15.34389318,.00023154,53.1600,322.8097,67.4078,292.7170,0,U,60431,999,10954,.15300006E-4,.14E-5,0
STARLINK-32246,2024-144H,2026-07-19T12:03:33.343200,15.34395562,.00013161,53.1594,323.9320,93.2674,266.8479,0,U,60432,999,10950,.36370817E-4,.853E-5,0
STARLINK-32183,2024-144J,2026-07-20T00:43:00.906240,15.34389921,.00008018,53.1597,321.5342,74.5513,285.5578,0,U,60433,999,10958,.1501647E-4,.131E-5,0
STARLINK-32233,2024-144K,2026-07-19T15:04:24.669120,15.34391374,.0000872,53.1591,321.8763,85.9721,274.1381,0,U,60434,999,10954,.51157E-4,.1352E-4,0
