STARLINK-11182 [DTC]    
1 60399U 24141B   26201.24059196 -.00000828  00000+0 -19734-5 0  9994
2 60399  53.1602 152.6787 0001203 109.4306 250.6842 15.69710558112560
STARLINK-11234 [DTC]    
1 60400U 24141C   26201.10834778  .00000013  00000+0  49666-5 0  9990
2 60400  53.1603 153.2736 0001246 103.6232 256.4925 15.69707133112499
STARLINK-11232 [DTC]    
1 60401U 24141D   26201.29444740  .00000468  00000+0  87194-5 0  9999
2 60401  53.1597 152.2992 0001092  90.7767 269.3376 15.69716360112577
STARLINK-11139 [DTC]    
1 60402U 24141E   26201.09853614 -.00000789  00000+0 -16542-5 0  9999
2 60402  53.1600 153.2143 0000921  96.4676 263.6447 15.69711590112547
STARLINK-11158 [DTC]    
1 60403U 24141F   26201.28474032  .00000251  00000+0  69262-5 0  9993
2 60403  53.1587 152.9665 0001072 105.8898 254.2238 15.69707805112511
STARLINK-11199 [DTC]    
1 60404U 24141G   26201.27983777 -.00000734  00000+0 -12041-5 0  9995
2 60404  53.1600 152.9334 0001094  89.9819 270.1324 15.69705249112568
STARLINK-11081 [DTC]    
1 60405U 24141H   26201.27492705 -.00000022  00000+0  46797-5 0  9996
2 60405  53.1600 152.9032 0001111  88.4101 271.7044 15.69711245112516
STARLINK-11150 [DTC]    
1 60406U 24141J   26201.27002313 -.00000102  00000+0  40134-5 0  9997
2 60406  53.1595 152.8703 0001073  76.2402 283.8735 15.69709509112566
STARLINK-11136 [DTC]    
1 60407U 24141K   26201.13777997 -.00001130  00000+0 -44794-5 0  9999
2 60407  53.1597 153.4659 0000435  47.0351 313.0703 15.69711573112493
STARLINK-11196 [DTC]    
1 60408U 24141L   26201.13287444  .00000195  00000+0  64712-5 0  9993
2 60408  53.1599 153.4320 0001202 107.4498 252.6651 15.69706803112543
STARLINK-11174 [DTC]    
1 60409U 24141M   26201.12306389  .00000085  00000+0  55629-5 0  9998
2 60409  53.1590 153.3664 0001002  83.3633 276.7499 15.69706832112499
STARLINK-11191 [DTC]    
1 60410U 24141N   26201.24549570  .00000595  00000+0  97683-5 0  9996
2 60410  53.1597 152.7078 0001039  84.0304 276.0832 15.69711583112564
STARLINK-32244          
1 60411U 24141P   26200.78264819  .00000140  00000+0  16285-4 0  9999
2 60411  53.1613 348.3914 0001308  93.6178 266.4973 15.31699987109815
STARLINK-32186          
1 60412U 24141Q   26200.75320684  .00000676  00000+0  31137-4 0  9997
2 60412  53.1615 346.7947 0000929  84.9433 275.1675 15.34399077109772
STARLINK-32178          
1 60413U 24141R   26200.67966150 -.00000392  00000+0 -46783-6 0  9995
2 60413  53.1614 347.0430 0001241  97.3913 262.7231 15.34390955109767
STARLINK-32234          
1 60414U 24141S   26200.83855584 -.00002773  00000+0 -77574-4 0  9997
2 60414  53.1607 348.0265 0001655  73.6424 286.4759 15.31721361109821
STARLINK-32265          
1 60415U 24141T   26200.81623912  .00000989  00000+0  40410-4 0  9998
2 60415  53.1614 346.4751 0001141  90.6740 269.4393 15.34397098109848
STARLINK-32197          
1 60416U 24141U   26201.10188119 -.00000373  00000+0 -24903-6 0  9997
2 60416  53.1612 336.8660 0000903 106.3645 253.7456 15.31697946109942
STARLINK-32255          
1 60417U 24141V   26201.10204308  .00000634  00000+0  29901-4 0  9996
2 60417  53.1599 345.4132 0001284  86.5931 273.5219 15.34389077109883
STARLINK-32236          
1 60418U 24141W   26201.10414166  .00001082  00000+0  43163-4 0  9996
2 60418  53.1620 345.4256 0001305  92.5959 267.5193 15.34392109109881
STARLINK-32250          
1 60425U 24144A   26200.75880631  .00000352  00000+0  21548-4 0  9993
2 60425  53.1593 322.6932 0001200 100.2843 259.8296 15.34390815108642
STARLINK-32226          
1 60426U 24144B   26200.76511471  .00001351  00000+0  51116-4 0  9992
2 60426  53.1573 322.7298 0000838  93.0302 267.0797 15.34394614109540
STARLINK-32254          
1 60427U 24144C   26200.49616158  .00000292  00000+0  19788-4 0  9993
2 60427  53.1573 323.8941 0000897  87.4669 272.6436 15.34388396109548
STARLINK-32193          
1 60428U 24144D   26200.38062048  .00001370  00000+0  51688-4 0  9998
2 60428  53.1593 324.5950 0000919 100.2476 259.8630 15.34387871109522
STARLINK-32242          
1 60429U 24144E   26201.31356719 -.00001634  00000+0 -37263-4 0  9992
2 60429  53.1608 320.4623 0001118  90.6164 269.4967 15.34377865109667
STARLINK-32196          
1 60430U 24144F   26200.75411768 -.00000559  00000+0 -54042-5 0  9997
2 60430  53.1594 321.2413 0001068  85.7980 274.3145 15.34407565109567
STARLINK-32232          
1 60431U 24144G   26200.77774717  .00000140  00000+0  15300-4 0  9993
2 60431  53.1600 322.8097 0002315  67.4078 292.7170 15.34389318109547
STARLINK-32246          
1 60432U 24144H   26200.50246925  .00000853  00000+0  36371-4 0  9992
2 60432  53.1594 323.9320 0001316  93.2674 266.8479 15.34395562109508
STARLINK-32183          
1 60433U 24144J   26201.02987160  .00000131  00000+0  15016-4 0  9996
2 60433  53.1597 321.5342 0000801  74.5513 285.5578 15.34389921109580
STARLINK-32233          
1 60434U 24144K   26200.62806330  .00001352  00000+0  51157-4 0  9993
2 60434  53.1591 321.8763 0000872  85.9721 274.1381 15.34391374109547
